NORAD_CAT_ID,OBJECT_NAME,OBJECT_TYPE,EPOCH,MEAN_MOTION,ECCENTRICITY,INCLINATION,RA_OF_ASC_NODE,ARG_OF_PERICENTER,MEAN_ANOMALY,BSTAR,MEAN_MOTION_DOT,MEAN_MOTION_DDOT,TLE_LINE0,TLE_LINE1,TLE_LINE2,SEMIMAJOR_AXIS,PERIOD,APOGEE,PERIGEE,DECAYED
52995.0,STARLINK-4296,PAYLOAD,2022-08-20 14:00:01,15.57346786,0.0001431,53.2174,162.0203,39.0322,10.5247,-0.015662,-0.01060844,0.0,0 STARLINK-4296,1 52995U 22076K   22232.58334491 -.01060844  00000-0 -15662-1 0  9991,2 52995  53.2174 162.0203 0001431  39.0322  10.5247 15.57346786  1301,6773.476,92.465,396.311,394.372,0.0
52995.0,STARLINK-4296,PAYLOAD,2022-08-20 22:00:00,15.56588074,0.000159,53.2175,160.4089,41.5774,77.3957,-0.016128,-0.01061658,0.0,0 STARLINK-4296,1 52995U 22076K   22232.91667824 -.01061658  00000-0 -16128-1 0  9999,2 52995  53.2175 160.4089 0001590  41.5774  77.3957 15.56588074  1307,6775.677,92.51,398.62,396.465,0.0
52995.0,STARLINK-4296,PAYLOAD,2022-08-21 04:00:00,15.56018931,0.000144,53.2174,159.2027,46.8791,33.5566,-0.016484,-0.01062142,0.0,0 STARLINK-4296,1 52995U 22076K   22233.16667824 -.01062142  00000-0 -16484-1 0  9991,2 52995  53.2174 159.2027 0001440  46.8791  33.5566 15.56018931  7514,6777.329000000002,92.544,400.17,398.218,0.0
52995.0,STARLINK-4296,PAYLOAD,2022-08-21 14:00:01,15.5506826,0.0001438,53.2175,157.1904,47.1185,207.9509,-0.0170349999999999,-0.01059757,0.0,0 STARLINK-4296,1 52995U 22076K   22233.58334491 -.01059757  00000-0 -17035-1 0  9999,2 52995  53.2175 157.1904 0001438  47.1185 207.9509 15.55068260  1308,6780.090999999999,92.6,402.931,400.981,0.0
52995.0,STARLINK-4296,PAYLOAD,2022-08-21 20:00:01,15.54498948,0.0001546,53.2175,155.9855,49.286,165.8777,-0.0173889999999999,-0.01059328,0.0,0 STARLINK-4296,1 52995U 22076K   22233.83334491 -.01059328  00000-0 -17389-1 0  9993,2 52995  53.2175 155.9855 0001546  49.2860 165.8777 15.54498948  7621,6781.746999999999,92.634,404.66,402.56300000000016,0.0
52995.0,STARLINK-4296,PAYLOAD,2022-08-21 22:00:00,15.5431043,0.0001409999999999,53.2175,155.5847,44.444,277.3033,-0.017564,-0.01062249,0.0,0 STARLINK-4296,1 52995U 22076K   22233.91667824 -.01062249  00000-0 -17564-1 0  9992,2 52995  53.2175 155.5847 0001410  44.4440 277.3033 15.54310430  1301,6782.295,92.646,405.116,403.204,0.0
52995.0,STARLINK-4296,PAYLOAD,2022-08-22 12:00:00,15.52981639,0.0001415,53.2174,152.7778,39.7668,306.4727,-0.018455,-0.01063013,0.0,0 STARLINK-4296,1 52995U 22076K   22234.50001157 -.01063013  00000-0 -18455-1 0  9999,2 52995  53.2174 152.7778 0001415  39.7668 306.4727 15.52981639  7725,6786.163000000001,92.725,408.98800000000006,407.068,0.0
52995.0,STARLINK-4296,PAYLOAD,2022-08-22 22:00:00,15.52029683,0.0001798,53.2176,150.7769,37.2301,119.0786,-0.019005,-0.01058086,0.0,0 STARLINK-4296,1 52995U 22076K   22234.91667824 -.01058086  00000-0 -19005-1 0  9999,2 52995  53.2176 150.7769 0001798  37.2301 119.0786 15.52029683  1309,6788.938,92.782,412.023,409.582,0.0
52995.0,STARLINK-4296,PAYLOAD,2022-08-23 04:00:00,15.51459268,0.0001520999999999,53.2176,149.579,48.9922,64.6729,-0.019383,-0.0105712999999999,0.0,0 STARLINK-4296,1 52995U 22076K   22235.16667824 -.01057130  00000-0 -19383-1 0  9995,2 52995  53.2176 149.5790 0001521  48.9922  64.6729 15.51459268  7821,6790.602,92.816,413.5,411.434,0.0
52995.0,STARLINK-4296,PAYLOAD,2022-08-23 12:00:00,15.50582381,0.0001740999999999,53.2174,147.9802,36.2596,139.7698,-0.013247,-0.00714371,0.0,0 STARLINK-4296,1 52995U 22076K   22235.50001157 -.00714371  00000-0 -13247-1 0  9993,2 52995  53.2174 147.9802 0001741  36.2596 139.7698 15.50582381  7872,6793.1619999999975,92.868,416.209,413.844,0.0
52995.0,STARLINK-4296,PAYLOAD,2022-08-23 14:00:01,15.503878699999998,0.0001682,53.2174,147.5808,39.6149,241.8535,-0.010685,-0.00574602,0.0,0 STARLINK-4296,1 52995U 22076K   22235.58334491 -.00574602  00000-0 -10685-1 0  9995,2 52995  53.2174 147.5808 0001682  39.6149 241.8535 15.50387870  1302,6793.73,92.88,416.737,414.452,0.0
52995.0,STARLINK-4296,PAYLOAD,2022-08-23 20:00:01,15.49951063,0.0001783,53.2176,146.3854,40.2735,197.2139,-0.0018800999999999,-0.00105978,0.0,0 STARLINK-4296,1 52995U 22076K   22235.83334491 -.00105978  00000-0 -18801-2 0  9998,2 52995  53.2176 146.3854 0001783  40.2735 197.2139 15.49951063  7931,6795.005999999999,92.906,418.083,415.66,0.0
52995.0,STARLINK-4296,PAYLOAD,2022-08-23 22:00:01,15.49883285,0.000172,53.2176,145.9875,41.5267,301.2861,4.3709e-05,2.029e-05,0.0,0 STARLINK-4296,1 52995U 22076K   22235.91668981  .00002029  00000-0  43709-4 0  9999,2 52995  53.2176 145.9875 0001720  41.5267 301.2861 15.49883285  1308,6795.204000000002,92.91,418.23800000000006,415.9,0.0
52995.0,STARLINK-4296,PAYLOAD,2022-08-24 04:00:00,15.49884233,8.04e-05,53.2174,144.79399999999995,16.6628,281.7693,4.6252e-05,2.175e-05,0.0,0 STARLINK-4296,1 52995U 22076K   22236.16667824  .00002175  00000-0  46252-4 0  9990,2 52995  53.2174 144.7940 0000804  16.6628 281.7693 15.49884233  7981,6795.201,92.91,417.61300000000006,416.52,0.0
52995.0,STARLINK-4296,PAYLOAD,2022-08-24 14:00:01,15.4987501,0.0001027,53.2163,142.8071,7.5028,96.9665,0.0007417999999999,0.0004186,0.0,0 STARLINK-4296,1 52995U 22076K   22236.58334491  .00041860  00000-0  74180-3 0  9991,2 52995  53.2163 142.8071 0001027   7.5028  96.9665 15.49875010  8040,6795.228,92.911,417.791,416.396,0.0
52995.0,STARLINK-4296,PAYLOAD,2022-08-24 22:00:00,15.49915035,0.0001181,53.2163,141.2172,9.9936,155.3898,-0.000417,-0.0002407,0.0,0 STARLINK-4296,1 52995U 22076K   22236.91667824 -.00024070  00000-0 -41700-3 0  9995,2 52995  53.2163 141.2172 0001181   9.9936 155.3898 15.49915035  1302,6795.111,92.908,417.779,416.174,0.0
52995.0,STARLINK-4296,PAYLOAD,2022-08-25 06:00:02,15.49859586,0.0001486,53.2162,139.6251,2.2027,224.1297,0.00039621,0.00022079,0.0,0 STARLINK-4296,1 52995U 22076K   22237.25002315  .00022079  00000-0  39621-3 0  9995,2 52995  53.2162 139.6251 0001486   2.2027 224.1297 15.49859586  8151,6795.273,92.912,418.148,416.129,0.0
52995.0,STARLINK-4296,PAYLOAD,2022-08-25 14:00:01,15.49846774,0.0001284,53.2167,138.0303,4.2885,282.8805,0.00090841,0.00051375,0.0,0 STARLINK-4296,1 52995U 22076K   22237.58334491  .00051375  00000-0  90841-3 0  9996,2 52995  53.2167 138.0303 0001284   4.2885 282.8805 15.49846774  1308,6795.311,92.912,418.048,416.30300000000005,0.0
52995.0,STARLINK-4296,PAYLOAD,2022-08-25 22:00:00,15.49893917,0.0001443,53.2168,136.4385,8.2103,339.8454,-0.00050837,-0.00029206,0.0,0 STARLINK-4296,1 52995U 22076K   22237.91667824 -.00029206  00000-0 -50837-3 0  9993,2 52995  53.2168 136.4385 0001443   8.2103 339.8454 15.49893917  1309,6795.1730000000025,92.91,418.019,416.0580000000001,0.0
52995.0,STARLINK-4296,PAYLOAD,2022-08-26 06:00:00,15.50127349,0.0001568,53.2168,134.8402,5.6214,43.2894,-0.003443,-0.00192782,0.0,0 STARLINK-4296,1 52995U 22076K   22238.25001157 -.00192782  00000-0 -34430-2 0  9992,2 52995  53.2168 134.8402 0001568   5.6214  43.2894 15.50127349  8305,6794.491,92.896,417.421,415.291,0.0
52995.0,STARLINK-4296,PAYLOAD,2022-08-26 14:00:01,15.49865512,0.0001389,53.2165,133.2513,7.8192,102.1297,0.00081982,0.00046321,0.0,0 STARLINK-4296,1 52995U 22076K   22238.58335648  .00046321  00000-0  81982-3 0  9993,2 52995  53.2165 133.2513 0001389   7.8192 102.1297 15.49865512  8354,6795.255999999999,92.911,418.065,416.177,0.0
52995.0,STARLINK-4296,PAYLOAD,2022-08-26 22:00:00,15.499038,0.0001563,53.2163,131.6598,10.3882,160.4057,-0.00039022,-0.0002254999999999,0.0,0 STARLINK-4296,1 52995U 22076K   22238.91667824 -.00022550  00000-0 -39022-3 0  9992,2 52995  53.2163 131.6598 0001563  10.3882 160.4057 15.49903800  1308,6795.144,92.909,418.071,415.947,0.0
52995.0,STARLINK-4296,PAYLOAD,2022-08-27 14:00:01,15.49866233,0.0001415,53.2163,128.4684,16.213,276.4479,0.0014883,0.00084882,0.0,0 STARLINK-4296,1 52995U 22076K   22239.58334491  .00084882  00000-0  14883-2 0  9998,2 52995  53.2163 128.4684 0001415  16.2130 276.4479 15.49866233  1309,6795.254,92.911,418.081,416.158,0.0
52995.0,STARLINK-4296,PAYLOAD,2022-08-27 20:00:01,15.50114377,0.0001437,53.217,127.2713,20.7526,227.5582,-0.0095853999999999,-0.00514386,0.0,0 STARLINK-4296,1 52995U 22076K   22239.83334491 -.00514386  00000-0 -95854-2 0  9992,2 52995  53.2170 127.2713 0001437  20.7526 227.5582 15.50114377  8553,6794.529,92.896,417.37,415.417,0.0
52995.0,STARLINK-4296,PAYLOAD,2022-08-27 22:00:00,15.50204135,0.0001783,53.217,126.8727,13.5636,339.9784,-0.016967,-0.00885921,0.0,0 STARLINK-4296,1 52995U 22076K   22239.91667824 -.00885921  00000-0 -16967-1 0  9993,2 52995  53.2170 126.8727 0001783  13.5636 339.9784 15.50204135  1309,6794.267,92.891,417.343,414.92,0.0
52995.0,STARLINK-4296,PAYLOAD,2022-08-28 04:00:00,15.49735657,0.0001606,53.2172,125.6754,31.7356,277.575,-0.020568,-0.01054853,0.0,0 STARLINK-4296,1 52995U 22076K   22240.16667824 -.01054853  00000-0 -20568-1 0  9997,2 52995  53.2172 125.6754 0001606  31.7356 277.5750 15.49735657  8609,6795.636,92.919,418.592,416.409,0.0
52995.0,STARLINK-4296,PAYLOAD,2022-08-28 14:00:01,15.48788181,0.0001865999999999,53.2173,123.6808,31.8931,82.6178,-0.0213639999999999,-0.01059123,0.0,0 STARLINK-4296,1 52995U 22076K   22240.58334491 -.01059123  00000-0 -21364-1 0  9994,2 52995  53.2173 123.6808 0001866  31.8931  82.6178 15.48788181  1304,6798.406999999997,92.976,421.541,419.003,0.0
52995.0,STARLINK-4296,PAYLOAD,2022-08-28 20:00:01,15.48218981,0.0001976,53.2174,122.4887,28.2871,40.6576,-0.021797,-0.01059142,0.0,0 STARLINK-4296,1 52995U 22076K   22240.83334491 -.01059142  00000-0 -21797-1 0  9993,2 52995  53.2174 122.4887 0001976  28.2871  40.6576 15.48218981  8707,6800.073,93.01,423.282,420.594,0.0
52995.0,STARLINK-4296,PAYLOAD,2022-08-28 22:00:00,15.48027003,0.0002065,53.2172,122.0913,31.6024,142.0404,-0.021861,-0.01055495,0.0,0 STARLINK-4296,1 52995U 22076K   22240.91667824 -.01055495  00000-0 -21861-1 0  9990,2 52995  53.2172 122.0913 0002065  31.6024 142.0404 15.48027003  1308,6800.635,93.022,423.905,421.096,0.0
